NORAD_CAT_ID,OBJECT_NAME,OBJECT_TYPE,EPOCH,MEAN_MOTION,ECCENTRICITY,INCLINATION,RA_OF_ASC_NODE,ARG_OF_PERICENTER,MEAN_ANOMALY,BSTAR,MEAN_MOTION_DOT,MEAN_MOTION_DDOT,TLE_LINE0,TLE_LINE1,TLE_LINE2,SEMIMAJOR_AXIS,PERIOD,APOGEE,PERIGEE,DECAYED
55952.0,STARLINK-5893,PAYLOAD,2024-02-18 14:19:12,14.98338356,0.0002603,70.0023,355.8241,269.9809,90.1052,-7.9642e-05,-1.043e-05,0.0,0 STARLINK-5893,1 55952U 23037AQ  24049.59667371 -.00001043  00000-0 -79642-4 0  9996,2 55952  70.0023 355.8241 0002603 269.9809  90.1052 14.98338356 52118,6950.167,96.106,573.841,570.223,0.0
55952.0,STARLINK-5893,PAYLOAD,2024-02-18 22:19:52,14.98328213,0.0002851,70.0021,354.9826,272.6463,87.437,0.00011771,1.312e-05,0.0,0 STARLINK-5893,1 55952U 23037AQ  24049.93047408  .00001312  00000-0  11771-3 0  9992,2 55952  70.0021 354.9826 0002851 272.6463  87.4370 14.98328213 52165,6950.198,96.107,574.045,570.082,0.0
55952.0,STARLINK-5893,PAYLOAD,2024-02-19 03:08:17,14.98332006,0.0002709,70.0018,354.4776,270.3405,89.7443,6.6022e-05,6.95e-06,0.0,0 STARLINK-5893,1 55952U 23037AQ  24050.13075330  .00000695  00000-0  66022-4 0  9994,2 55952  70.0018 354.4776 0002709 270.3405  89.7443 14.98332006 52535,6950.187,96.107,573.934,570.169,0.0
55952.0,STARLINK-5893,PAYLOAD,2024-02-19 06:20:33,14.98332398,0.0002757,70.002,354.1411,271.626,88.4583,6.9746e-05,7.39e-06,0.0,0 STARLINK-5893,1 55952U 23037AQ  24050.26427266  .00000739  00000-0  69746-4 0  9992,2 55952  70.0020 354.1411 0002757 271.6260  88.4583 14.98332398 52554,6950.185,96.107,573.967,570.134,0.0
55952.0,STARLINK-5893,PAYLOAD,2024-02-19 22:21:54,14.9832454,0.0002685,70.0021,352.4579,275.0261,85.0591,-6.3943e-05,-8.56e-06,0.0,0 STARLINK-5893,1 55952U 23037AQ  24050.93188156 -.00000856  00000-0 -63943-4 0  9993,2 55952  70.0021 352.4579 0002685 275.0261  85.0591 14.98324540 52316,6950.21,96.107,573.941,570.209,0.0
55952.0,STARLINK-5893,PAYLOAD,2024-02-20 03:10:18,14.98330861,0.0002265,70.0021,351.953,267.1873,92.9027,-0.0001867,-2.32e-05,0.0,0 STARLINK-5893,1 55952U 23037AQ  24051.13216147 -.00002320  00000-0 -18670-3 0  9992,2 55952  70.0021 351.9530 0002265 267.1873  92.9027 14.98330861 52686,6950.19,96.107,573.629,570.481,0.0
55952.0,STARLINK-5893,PAYLOAD,2024-02-20 06:22:34,14.98324725,0.0002413,70.0026,351.6186,264.8139,95.2745,-6.4189e-05,-8.59e-06,0.0,0 STARLINK-5893,1 55952U 23037AQ  24051.26568203 -.00000859  00000-0 -64189-4 0  9991,2 55952  70.0026 351.6186 0002413 264.8139  95.2745 14.98324725 52707,6950.209,96.107,573.751,570.397,0.0
55952.0,STARLINK-5893,PAYLOAD,2024-02-20 12:47:06,14.98329899,0.0002448,70.0027,350.9439,271.9789,88.109,-6.3994e-05,-8.56e-06,0.0,0 STARLINK-5893,1 55952U 23037AQ  24051.53271942 -.00000856  00000-0 -63994-4 0  9992,2 55952  70.0027 350.9439 0002448 271.9789  88.1090 14.98329899 52407,6950.193,96.107,573.76,570.357,0.0
55952.0,STARLINK-5893,PAYLOAD,2024-02-20 22:23:54,14.98331131,0.0002879,70.0014,349.9327,271.2157,88.8672,1.1046e-05,3.9e-07,0.0,0 STARLINK-5893,1 55952U 23037AQ  24051.93327471  .00000039  00000-0  11046-4 0  9997,2 55952  70.0014 349.9327 0002879 271.2157  88.8672 14.98331131 52468,6950.189,96.107,574.055,570.053,0.0
55952.0,STARLINK-5893,PAYLOAD,2024-02-21 03:12:18,14.98336627,0.0002762,70.0016,349.4281,270.5242,89.56,4.0152e-05,3.86e-06,0.0,0 STARLINK-5893,1 55952U 23037AQ  24052.13355009  .00000386  00000-0  40152-4 0  9993,2 55952  70.0016 349.4281 0002762 270.5242  89.5600 14.98336627 52837,6950.172,96.107,573.957,570.118,0.0
55952.0,STARLINK-5893,PAYLOAD,2024-02-21 04:48:26,14.98337963,0.000276,70.0017,349.26,269.7611,90.3232,5.6903e-05,5.86e-06,0.0,0 STARLINK-5893,1 55952U 23037AQ  24052.20030840  .00000586  00000-0  56903-4 0  9997,2 55952  70.0017 349.2600 0002760 269.7611  90.3232 14.98337963 52845,6950.168,96.106,573.952,570.115,0.0
55952.0,STARLINK-5893,PAYLOAD,2024-02-21 12:49:06,14.98358999,0.0002864,70.0018,348.4164,282.0321,78.0517,-0.00043003,-5.224e-05,0.0,0 STARLINK-5893,1 55952U 23037AQ  24052.53410523 -.00005224  00000-0 -43003-3 0  9995,2 55952  70.0018 348.4164 0002864 282.0321  78.0517 14.98358999 52552,6950.103,96.105,573.959,569.978,0.0
55952.0,STARLINK-5893,PAYLOAD,2024-02-21 22:25:56,14.98324718,0.0002675,70.0017,347.4106,269.1527,90.9326,3.9293e-06,-4.6e-07,0.0,0 STARLINK-5893,1 55952U 23037AQ  24052.93467873 -.00000046  00000-0  39293-5 0  9993,2 55952  70.0017 347.4106 0002675 269.1527  90.9326 14.98324718 52610,6950.209,96.107,573.933,570.215,0.0
55952.0,STARLINK-5893,PAYLOAD,2024-02-22 03:14:20,14.98323829,0.000286,70.0012,346.9036,273.2179,86.8653,9.9583e-06,2.6e-07,0.0,0 STARLINK-5893,1 55952U 23037AQ  24053.13495948  .00000026  00000-0  99583-5 0  9995,2 55952  70.0012 346.9036 0002860 273.2179  86.8653 14.98323829 52985,6950.212,96.107,574.065,570.089,0.0
55952.0,STARLINK-5893,PAYLOAD,2024-02-22 06:26:36,14.98325598,0.0002675,70.0017,346.5672,260.0959,99.9899,1.3809e-05,7.2e-07,0.0,0 STARLINK-5893,1 55952U 23037AQ  24053.26847796  .00000072  00000-0  13809-4 0  9998,2 55952  70.0017 346.5672 0002675 260.0959  99.9899 14.98325598 53002,6950.207,96.107,573.931,570.212,0.0
55952.0,STARLINK-5893,PAYLOAD,2024-02-22 12:51:08,14.98327331,0.000252,70.0022,345.8927,275.3155,84.7716,-1.8178e-05,-3.1e-06,0.0,0 STARLINK-5893,1 55952U 23037AQ  24053.53551955 -.00000310  00000-0 -18178-4 0  9998,2 55952  70.0022 345.8927 0002520 275.3155  84.7716 14.98327331 52702,6950.201,96.107,573.818,570.315,0.0
55952.0,STARLINK-5893,PAYLOAD,2024-02-22 22:27:56,14.98330486,0.000296,70.0016,344.8837,271.8114,88.2706,-1.8362e-05,-3.12e-06,0.0,0 STARLINK-5893,1 55952U 23037AQ  24053.93607584 -.00000312  00000-0 -18362-4 0  9999,2 55952  70.0016 344.8837 0002960 271.8114  88.2706 14.98330486 52767,6950.191,96.107,574.114,569.999,0.0
55952.0,STARLINK-5893,PAYLOAD,2024-02-23 03:16:20,14.98333542,0.0003086,70.001,344.3776,275.7538,84.3269,3.7392e-05,3.53e-06,0.0,0 STARLINK-5893,1 55952U 23037AQ  24054.13635205  .00000353  00000-0  37392-4 0  9990,2 55952  70.0010 344.3776 0003086 275.7538  84.3269 14.98333542 53130,6950.182,96.107,574.192,569.902,0.0
55952.0,STARLINK-5893,PAYLOAD,2024-02-23 04:52:28,14.9833872,0.0002828,70.0013,344.2097,271.8448,88.2387,2.8933e-05,2.52e-06,0.0,0 STARLINK-5893,1 55952U 23037AQ  24054.20310845  .00000252  00000-0  28933-4 0  9997,2 55952  70.0013 344.2097 0002828 271.8448  88.2387 14.98338720 53146,6950.166,96.106,573.996,570.065,0.0
55952.0,STARLINK-5893,PAYLOAD,2024-02-23 12:53:09,14.98324445,0.0002606,70.0016,343.3694,261.0947,98.9917,6.2749e-05,6.56e-06,0.0,0 STARLINK-5893,1 55952U 23037AQ  24054.53691624  .00000656  00000-0  62749-4 0  9991,2 55952  70.0016 343.3694 0002606 261.0947  98.9917 14.98324445 52854,6950.21,96.107,573.886,570.264,0.0
55952.0,STARLINK-5893,PAYLOAD,2024-02-23 19:17:41,14.98323182,0.0002722,70.0017,342.697,273.6127,86.4721,2.0733e-05,1.54e-06,0.0,0 STARLINK-5893,1 55952U 23037AQ  24054.80395796  .00000154  00000-0  20733-4 0  9992,2 55952  70.0017 342.6970 0002722 273.6127  86.4721 14.98323182 53237,6950.214,96.107,573.971,570.187,0.0
55952.0,STARLINK-5893,PAYLOAD,2024-02-23 22:29:58,14.98323739,0.0002717,70.0016,342.3594,272.5005,87.5843,3.0738e-05,2.74e-06,0.0,0 STARLINK-5893,1 55952U 23037AQ  24054.93747770  .00000274  00000-0  30738-4 0  9998,2 55952  70.0016 342.3594 0002717 272.5005  87.5843 14.98323739 52911,6950.212,96.107,573.966,570.189,0.0
55952.0,STARLINK-5893,PAYLOAD,2024-02-24 03:18:22,14.98323591,0.0002791,70.0015,341.8548,275.3846,84.6994,7.1833e-05,7.64e-06,0.0,0 STARLINK-5893,1 55952U 23037AQ  24055.13775747  .00000764  00000-0  71833-4 0  9991,2 55952  70.0015 341.8548 0002791 275.3846  84.6994 14.98323591 53281,6950.213,96.107,574.018,570.138,0.0
55952.0,STARLINK-5893,PAYLOAD,2024-02-24 04:54:30,14.98326131,0.0002627,70.0016,341.6864,270.5905,89.4953,4.7913e-05,4.79e-06,0.0,0 STARLINK-5893,1 55952U 23037AQ  24055.20451647  .00000479  00000-0  47913-4 0  9994,2 55952  70.0016 341.6864 0002627 270.5905  89.4953 14.98326131 53294,6950.205,96.107,573.896,570.244,0.0
55952.0,STARLINK-5893,PAYLOAD,2024-02-24 12:55:11,14.98294962,0.0002505,70.0015,340.8443,286.0382,74.0501,0.00060184,7.089e-05,0.0,0 STARLINK-5893,1 55952U 23037AQ  24055.53832632  .00007089  00000-0  60184-3 0  9995,2 55952  70.0015 340.8443 0002505 286.0382  74.0501 14.98294962 53007,6950.301,96.109,573.907,570.425,0.0
55952.0,STARLINK-5893,PAYLOAD,2024-02-25 04:56:30,14.98325728,0.0002461,70.0017,339.1612,267.1599,92.9279,0.00019429,2.226e-05,0.0,0 STARLINK-5893,1 55952U 23037AQ  24056.20591204  .00002226  00000-0  19429-3 0  9991,2 55952  70.0017 339.1612 0002461 267.1599  92.9279 14.98325728 53443,6950.206,96.107,573.782,570.361,0.0
55952.0,STARLINK-5893,PAYLOAD,2024-02-25 19:21:43,14.98332461,0.0002554,70.0014,337.646,270.3358,89.7508,4.7654e-05,4.76e-06,0.0,0 STARLINK-5893,1 55952U 23037AQ  24056.80674972  .00000476  00000-0  47654-4 0  9998,2 55952  70.0014 337.6460 0002554 270.3358  89.7508 14.98332461 53537,6950.185,96.107,573.825,570.275,0.0
55952.0,STARLINK-5893,PAYLOAD,2024-02-25 22:33:59,14.9833184,0.0002591,70.0014,337.3092,269.4287,90.6575,4.1526e-05,4.03e-06,0.0,0 STARLINK-5893,1 55952U 23037AQ  24056.94026991  .00000403  00000-0  41526-4 0  9997,2 55952  70.0014 337.3092 0002591 269.4287  90.6575 14.98331840 53216,6950.187,96.107,573.853,570.251,0.0
55952.0,STARLINK-5893,PAYLOAD,2024-02-26 03:22:23,14.98331166,0.0002537,70.0016,336.8044,269.1686,90.9183,6.3425e-05,6.64e-06,0.0,0 STARLINK-5893,1 55952U 23037AQ  24057.14054960  .00000664  00000-0  63425-4 0  9998,2 55952  70.0016 336.8044 0002537 269.1686  90.9183 14.98331166 53588,6950.189,96.107,573.818,570.291,0.0
55952.0,STARLINK-5893,PAYLOAD,2024-02-26 04:58:31,14.98333448,0.0002548,70.0016,336.6362,256.6093,103.4782,7.4273e-05,7.93e-06,0.0,0 STARLINK-5893,1 55952U 23037AQ  24057.20730672  .00000793  00000-0  74273-4 0  9992,2 55952  70.0016 336.6362 0002548 256.6093 103.4782 14.98333448 53595,6950.182,96.107,573.818,570.276,0.0
